start=new Date('2023-01-08T00:00:00.000Z').valueOf();
sats=[{"OBJECT_TYPE":"PAYLOAD","LAUNCH_DATE":"2022-09-05","NORAD_CAT_ID":"53737","DECAY_DATE":null,"GP_ID":"222426164","CENTER_NAME":"EARTH","SEMIMAJOR_AXIS":"6917.790","RA_OF_ASC_NODE":"57.1740","SITE":"AFETR","MEAN_ANOMALY":"316.3053","RCS_SIZE":"LARGE","PERIOD":"95.436","MEAN_MOTION_DDOT":"0.0000000000000","TIME_SYSTEM":"UTC","COUNTRY_CODE":"US","ELEMENT_SET_NO":"999","MEAN_MOTION":"15.08869617","OBJECT_NAME":"STARLINK-4646","ARG_OF_PERICENTER":"43.8083","CLASSIFICATION_TYPE":"U","TLE_LINE2":"2 53737  53.2178  57.1740 0001817  43.8083 316.3053 15.08869617 19956","FILE":"3735488","ECCENTRICITY":"0.00018170","MEAN_MOTION_DOT":"0.00023013","EPOCH":"2023-01-07T20:39:31.209696","APOAPSIS":"540.912","REV_AT_EPOCH":"1995","REF_FRAME":"TEME","TLE_LINE1":"1 53737U 22107AP  23007.86077789  .00023013  00000-0  14581-2 0  9991","PERIAPSIS":"538.398","MEAN_ELEMENT_THEORY":"SGP4","OBJECT_ID":"2022-107AP","EPHEMERIS_TYPE":"0","INCLINATION":"53.2178","BSTAR":"0.00145810000000"},{"ARG_OF_PERICENTER":"66.4285","CLASSIFICATION_TYPE":"U","TLE_LINE2":"2 53738  53.2173  57.1246 0002748  66.4285 293.6996 15.08815403 19803","FILE":"3735488","ECCENTRICITY":"0.00027480","MEAN_MOTION_DOT":"0.00000234","EPOCH":"2023-01-07T20:28:55.792128","APOAPSIS":"541.722","REV_AT_EPOCH":"1980","REF_FRAME":"TEME","TLE_LINE1":"1 53738U 22107AQ  23007.85342352  .00000234  00000-0  32842-4 0  9994","PERIAPSIS":"537.920","MEAN_ELEMENT_THEORY":"SGP4","OBJECT_ID":"2022-107AQ","EPHEMERIS_TYPE":"0","INCLINATION":"53.2173","BSTAR":"0.00003284200000","OBJECT_TYPE":"PAYLOAD","LAUNCH_DATE":"2022-09-05","NORAD_CAT_ID":"53738","DECAY_DATE":null,"CENTER_NAME":"EARTH","GP_ID":"222426853","SEMIMAJOR_AXIS":"6917.956","RA_OF_ASC_NODE":"57.1246","SITE":"AFETR","MEAN_ANOMALY":"293.6996","RCS_SIZE":"LARGE","PERIOD":"95.439","MEAN_MOTION_DDOT":"0.0000000000000","TIME_SYSTEM":"UTC","COUNTRY_CODE":"US","ELEMENT_SET_NO":"999","MEAN_MOTION":"15.08815403","OBJECT_NAME":"STARLINK-4662"},{"NORAD_CAT_ID":"53740","LAUNCH_DATE":"2022-09-05","DECAY_DATE":null,"OBJECT_TYPE":"PAYLOAD","RCS_SIZE":"LARGE","SITE":"AFETR","MEAN_ANOMALY":"300.9665","SEMIMAJOR_AXIS":"6917.931","RA_OF_ASC_NODE":"57.1951","GP_ID":"222427082","CENTER_NAME":"EARTH","ELEMENT_SET_NO":"999","MEAN_MOTION":"15.08823569","COUNTRY_CODE":"US","PERIOD":"95.439","MEAN_MOTION_DDOT":"0.0000000000000","TIME_SYSTEM":"UTC","OBJECT_NAME":"STARLINK-4607","MEAN_MOTION_DOT":"0.00001096","ECCENTRICITY":"0.00019860","TLE_LINE2":"2 53740  53.2188  57.1951 0001986  59.1522 300.9665 15.08823569 19954","FILE":"3735488","CLASSIFICATION_TYPE":"U","ARG_OF_PERICENTER":"59.1522","EPHEMERIS_TYPE":"0","MEAN_ELEMENT_THEORY":"SGP4","OBJECT_ID":"2022-107AS","REV_AT_EPOCH":"1995","APOAPSIS":"541.170","REF_FRAME":"TEME","TLE_LINE1":"1 53740U 22107AS  23007.86447633  .00001096  00000-0  86991-4 0  9997","PERIAPSIS":"538.422","EPOCH":"2023-01-07T20:44:50.754912","INCLINATION":"53.2188","BSTAR":"0.00008699100000"},{"ELEMENT_SET_NO":"999","MEAN_MOTION":"15.08832883","COUNTRY_CODE":"US","PERIOD":"95.438","MEAN_MOTION_DDOT":"0.0000000000000","TIME_SYSTEM":"UTC","OBJECT_NAME":"STARLINK-4614","NORAD_CAT_ID":"53741","LAUNCH_DATE":"2022-09-05","DECAY_DATE":null,"OBJECT_TYPE":"PAYLOAD","RCS_SIZE":"LARGE","MEAN_ANOMALY":"306.8811","SITE":"AFETR","SEMIMAJOR_AXIS":"6917.902","RA_OF_ASC_NODE":"44.2528","GP_ID":"222425935","CENTER_NAME":"EARTH","INCLINATION":"53.2182","BSTAR":"0.00029668000000","MEAN_MOTION_DOT":"0.00004436","ECCENTRICITY":"0.00026860","TLE_LINE2":"2 53741  53.2182  44.2528 0002686  53.2427 306.8811 15.08832883 20097","FILE":"3735488","CLASSIFICATION_TYPE":"U","ARG_OF_PERICENTER":"53.2427","EPHEMERIS_TYPE":"0","MEAN_ELEMENT_THEORY":"SGP4","OBJECT_ID":"2022-107AT","REF_FRAME":"TEME","APOAPSIS":"541.625","REV_AT_EPOCH":"2009","PERIAPSIS":"537.909","TLE_LINE1":"1 53741U 22107AT  23007.37921211  .00004436  00000-0  29668-3 0  9991","EPOCH":"2023-01-07T09:06:03.926304"},{"ARG_OF_PERICENTER":"4.6281","CLASSIFICATION_TYPE":"U","FILE":"3735488","TLE_LINE2":"2 53742  53.2184  57.2165 0001683   4.6281 355.4726 15.08837346 19952","ECCENTRICITY":"0.00016830","MEAN_MOTION_DOT":"0.00006773","EPOCH":"2023-01-07T20:50:08.779488","PERIAPSIS":"538.589","TLE_LINE1":"1 53742U 22107AU  23007.86815717  .00006773  00000-0  44329-3 0  9996","APOAPSIS":"540.918","REV_AT_EPOCH":"1995","REF_FRAME":"TEME","OBJECT_ID":"2022-107AU","MEAN_ELEMENT_THEORY":"SGP4","EPHEMERIS_TYPE":"0","INCLINATION":"53.2184","BSTAR":"0.00044329000000","OBJECT_TYPE":"PAYLOAD","DECAY_DATE":null,"NORAD_CAT_ID":"53742","LAUNCH_DATE":"2022-09-05","GP_ID":"222426626","CENTER_NAME":"EARTH","RA_OF_ASC_NODE":"57.2165","SEMIMAJOR_AXIS":"6917.889","MEAN_ANOMALY":"355.4726","SITE":"AFETR","RCS_SIZE":"LARGE","MEAN_MOTION_DDOT":"0.0000000000000","TIME_SYSTEM":"UTC","PERIOD":"95.438","COUNTRY_CODE":"US","MEAN_MOTION":"15.08837346","ELEMENT_SET_NO":"999","OBJECT_NAME":"STARLINK-4637"},{"RA_OF_ASC_NODE":"58.7971","SEMIMAJOR_AXIS":"6917.886","CENTER_NAME":"EARTH","GP_ID":"222427311","RCS_SIZE":"LARGE","SITE":"AFETR","MEAN_ANOMALY":"327.9025","OBJECT_TYPE":"PAYLOAD","DECAY_DATE":null,"LAUNCH_DATE":"2022-09-05","NORAD_CAT_ID":"53743","OBJECT_NAME":"STARLINK-4645","COUNTRY_CODE":"US","TIME_SYSTEM":"UTC","MEAN_MOTION_DDOT":"0.0000000000000","PERIOD":"95.438","MEAN_MOTION":"15.08838261","ELEMENT_SET_NO":"999","PERIAPSIS":"538.318","TLE_LINE1":"1 53743U 22107AV  23007.55169092  .00005843  00000-0  38495-3 0  9995","APOAPSIS":"541.183","REF_FRAME":"TEME","REV_AT_EPOCH":"1990","EPOCH":"2023-01-07T13:14:26.095488","EPHEMERIS_TYPE":"0","MEAN_ELEMENT_THEORY":"SGP4","OBJECT_ID":"2022-107AV","CLASSIFICATION_TYPE":"U","ARG_OF_PERICENTER":"32.2094","MEAN_MOTION_DOT":"0.00005843","ECCENTRICITY":"0.00020710","FILE":"3735488","TLE_LINE2":"2 53743  53.2190  58.7971 0002071  32.2094 327.9025 15.08838261 19900","BSTAR":"0.00038495000000","INCLINATION":"53.2190"},{"INCLINATION":"53.2183","BSTAR":"0.00070472000000","CLASSIFICATION_TYPE":"U","ARG_OF_PERICENTER":"78.4195","MEAN_MOTION_DOT":"0.00010944","ECCENTRICITY":"0.00012900","TLE_LINE2":"2 53744  53.2183  57.2420 0001290  78.4195 281.6942 15.08834678 19959","FILE":"3735488","REV_AT_EPOCH":"1995","APOAPSIS":"540.654","REF_FRAME":"TEME","TLE_LINE1":"1 53744U 22107AW  23007.87186739  .00010944  00000-0  70472-3 0  9997","PERIAPSIS":"538.869","EPOCH":"2023-01-07T20:55:29.342496","EPHEMERIS_TYPE":"0","OBJECT_ID":"2022-107AW","MEAN_ELEMENT_THEORY":"SGP4","COUNTRY_CODE":"US","PERIOD":"95.438","TIME_SYSTEM":"UTC","MEAN_MOTION_DDOT":"0.0000000000000","ELEMENT_SET_NO":"999","MEAN_MOTION":"15.08834678","OBJECT_NAME":"STARLINK-4670","OBJECT_TYPE":"PAYLOAD","LAUNCH_DATE":"2022-09-05","NORAD_CAT_ID":"53744","DECAY_DATE":null,"RA_OF_ASC_NODE":"57.2420","SEMIMAJOR_AXIS":"6917.897","CENTER_NAME":"EARTH","GP_ID":"222427539","RCS_SIZE":"LARGE","SITE":"AFETR","MEAN_ANOMALY":"281.6942"},{"CLASSIFICATION_TYPE":"U","ARG_OF_PERICENTER":"35.8918","MEAN_MOTION_DOT":"0.00001884","ECCENTRICITY":"0.00020350","TLE_LINE2":"2 53745  53.2186  58.8215 0002035  35.8918 324.2210 15.08839368 19908","FILE":"3735488","APOAPSIS":"541.155","REV_AT_EPOCH":"1990","REF_FRAME":"TEME","TLE_LINE1":"1 53745U 22107AX  23007.55537132  .00001884  00000-0  13642-3 0  9999","PERIAPSIS":"538.340","EPOCH":"2023-01-07T13:19:44.082048","EPHEMERIS_TYPE":"0","MEAN_ELEMENT_THEORY":"SGP4","OBJECT_ID":"2022-107AX","INCLINATION":"53.2186","BSTAR":"0.00013642000000","OBJECT_TYPE":"PAYLOAD","LAUNCH_DATE":"2022-09-05","NORAD_CAT_ID":"53745","DECAY_DATE":null,"RA_OF_ASC_NODE":"58.8215","SEMIMAJOR_AXIS":"6917.882","GP_ID":"222426397","CENTER_NAME":"EARTH","RCS_SIZE":"LARGE","SITE":"AFETR","MEAN_ANOMALY":"324.2210","COUNTRY_CODE":"US","PERIOD":"95.438","TIME_SYSTEM":"UTC","MEAN_MOTION_DDOT":"0.0000000000000","ELEMENT_SET_NO":"999","MEAN_MOTION":"15.08839368","OBJECT_NAME":"STARLINK-4656"},{"EPHEMERIS_TYPE":"0","MEAN_ELEMENT_THEORY":"SGP4","OBJECT_ID":"2022-107AY","TLE_LINE1":"1 53746U 22107AY  23007.54800901  .00007813  00000-0  50848-3 0  9993","PERIAPSIS":"537.994","REV_AT_EPOCH":"1990","APOAPSIS":"541.515","REF_FRAME":"TEME","EPOCH":"2023-01-07T13:09:07.978464","MEAN_MOTION_DOT":"0.00007813","ECCENTRICITY":"0.00025450","FILE":"3735488","TLE_LINE2":"2 53746  53.2174  58.7702 0002545  26.5110 333.6011 15.08837072 19906","CLASSIFICATION_TYPE":"U","ARG_OF_PERICENTER":"26.5110","BSTAR":"0.00050848000000","INCLINATION":"53.2174","RCS_SIZE":"LARGE","MEAN_ANOMALY":"333.6011","SITE":"AFETR","RA_OF_ASC_NODE":"58.7702","SEMIMAJOR_AXIS":"6917.889","CENTER_NAME":"EARTH","GP_ID":"222426165","DECAY_DATE":null,"NORAD_CAT_ID":"53746","LAUNCH_DATE":"2022-09-05","OBJECT_TYPE":"PAYLOAD","OBJECT_NAME":"STARLINK-4589","MEAN_MOTION":"15.08837072","ELEMENT_SET_NO":"999","COUNTRY_CODE":"US","MEAN_MOTION_DDOT":"0.0000000000000","TIME_SYSTEM":"UTC","PERIOD":"95.438"},{"BSTAR":"0.00011506000000","INCLINATION":"53.2185","APOAPSIS":"542.081","REV_AT_EPOCH":"1994","REF_FRAME":"TEME","TLE_LINE1":"1 53748U 22107BA  23007.82402442  .00001542  00000-0  11506-3 0  9995","PERIAPSIS":"537.551","EPOCH":"2023-01-07T19:46:35.709888","EPHEMERIS_TYPE":"0","MEAN_ELEMENT_THEORY":"SGP4","OBJECT_ID":"2022-107BA","CLASSIFICATION_TYPE":"U","ARG_OF_PERICENTER":"31.5174","ECCENTRICITY":"0.00032740","MEAN_MOTION_DOT":"0.00001542","TLE_LINE2":"2 53748  53.2185  57.6510 0003274  31.5174 328.6014 15.08817029 19942","FILE":"3735488","OBJECT_NAME":"STARLINK-4669","COUNTRY_CODE":"US","PERIOD":"95.439","MEAN_MOTION_DDOT":"0.0000000000000","TIME_SYSTEM":"UTC","ELEMENT_SET_NO":"999","MEAN_MOTION":"15.08817029","RA_OF_ASC_NODE":"57.6510","SEMIMAJOR_AXIS":"6917.951","CENTER_NAME":"EARTH","GP_ID":"222426854","RCS_SIZE":"LARGE","SITE":"AFETR","MEAN_ANOMALY":"328.6014","OBJECT_TYPE":"PAYLOAD","NORAD_CAT_ID":"53748","LAUNCH_DATE":"2022-09-05","DECAY_DATE":null}];
